IRIDIUM 119             
1 42959U 17061E   24223.20927870  .00000628  00000+0  21697-3 0  9995
2 42959  86.3984 307.7395 0002446  91.6566 268.4910 14.34223870357922
IRIDIUM 107             
1 42960U 17061F   24223.43762266 -.00000023  00000+0 -15449-4 0  9998
2 42960  86.3984 307.6609 0002185  87.5530 272.5916 14.34216919357968
IRIDIUM 132             
1 42961U 17061G   24223.23466009  .00000201  00000+0  64864-4 0  9994
2 42961  86.3984 307.7305 0002120  88.0312 272.1127 14.34216793357933
IRIDIUM 136             
1 42962U 17061H   24223.61521767  .00000041  00000+0  75909-5 0  9995
2 42962  86.3983 307.5738 0002509  86.8407 273.3076 14.34215958358000
IRIDIUM 139             
1 42963U 17061J   24223.20294869  .00000107  00000+0  31012-4 0  9990
2 42963  86.3986 307.7982 0002293  85.6102 274.5356 14.34217017357951
IRIDIUM 125             
1 42964U 17061K   24223.60887405  .00000034  00000+0  50549-5 0  9995
2 42964  86.3988 307.6774 0002691  88.7995 271.3509 14.34216838358022
IRIDIUM 135             
1 43070U 17083A   24223.58299676 -.00000014  00000+0 -11999-4 0  9997
2 43070  86.3932 244.3243 0001919  97.4218 262.7196 14.34217358347319
IRIDIUM 138             
1 43071U 17083B   24223.60836989  .00000016  00000+0 -12791-5 0  9998
2 43071  86.3921 244.0241 0002556  91.5086 268.6402 14.34217579347308
